{
    "links": {
        "self": "http://www.neowsapp.com/rest/v1/neo/3837711?api_key=iIulBulltgU6a56xZRHN4H3l9WmuAYTsLGpBGhQ2"
    },
    "id": "3837711",
    "neo_reference_id": "3837711",
    "name": "(2019 AL6)",
    "designation": "2019 AL6",
    "nasa_jpl_url": "http://ssd.jpl.nasa.gov/sbdb.cgi?sstr=3837711",
    "absolute_magnitude_h": 26.0,
    "estimated_diameter": {
        "kilometers": {
            "estimated_diameter_min": 0.0167708462,
            "estimated_diameter_max": 0.0375007522
        },
        "meters": {
            "estimated_diameter_min": 16.7708462163,
            "estimated_diameter_max": 37.5007521798
        },
        "miles": {
            "estimated_diameter_min": 0.0104209175,
            "estimated_diameter_max": 0.0233018799
        },
        "feet": {
            "estimated_diameter_min": 55.0224631002,
            "estimated_diameter_max": 123.0339677816
        }
    },
    "is_potentially_hazardous_asteroid": false,
    "close_approach_data": [
        {
            "close_approach_date": "2018-12-22",
            "close_approach_date_full": "2018-Dec-22 14:00",
            "epoch_date_close_approach": 1545487200000,
            "relative_velocity": {
                "kilometers_per_second": "7.5860406016",
                "kilometers_per_hour": "27309.7461658923",
                "miles_per_hour": "16969.2142218012"
            },
            "miss_distance": {
                "astronomical": "0.0168836001",
                "lunar": "6.5677204389",
                "kilometers": "2525750.612891787",
                "miles": "1569428.6554771806"
            },
            "orbiting_body": "Earth"
        }
    ],
    "orbital_data": {
        "orbit_id": "2",
        "orbit_determination_date": "2019-01-13 07:57:23",
        "first_observation_date": "2019-01-04",
        "last_observation_date": "2019-01-11",
        "data_arc_in_days": 7,
        "observations_used": 18,
        "orbit_uncertainty": "8",
        "minimum_orbit_intersection": ".00600378",
        "jupiter_tisserand_invariant": "3.704",
        "epoch_osculation": "2458491.5",
        "eccentricity": ".5073225224655881",
        "semi_major_axis": "1.967478009401392",
        "inclination": "1.076991202203105",
        "ascending_node_longitude": "31.69810081283962",
        "orbital_period": "1008.006325112256",
        "perihelion_distance": ".9693321027763038",
        "perihelion_argument": "39.19967162333217",
        "aphelion_distance": "2.96562391602648",
        "perihelion_time": "2458459.684455022404",
        "mean_anomaly": "11.36262333538338",
        "mean_motion": ".3571406161165793",
        "equinox": "J2000",
        "orbit_class": {
            "orbit_class_type": "APO",
            "orbit_class_description": "Near-Earth asteroid orbits which cross the Earth’s orbit similar to that of 1862 Apollo",
            "orbit_class_range": "a (semi-major axis) > 1.0 AU; q (perihelion) < 1.017 AU"
        }
    },
    "is_sentry_object": false
}